[{"OBJECT_NAME":"TIANMU-1 20","OBJECT_ID":"2023-208B","EPOCH":"2026-03-09T21:50:45.859200","MEAN_MOTION":15.31029249,"ECCENTRICITY":0.00061925,"INCLINATION":97.4323,"RA_OF_ASC_NODE":185.4313,"ARG_OF_PERICENTER":324.1763,"MEAN_ANOMALY":35.9062,"EPHEMERIS_TYPE":0,"CLASSIFICATION_TYPE":"U","NORAD_CAT_ID":58661,"ELEMENT_SET_NO":999,"REV_AT_EPOCH":12222,"BSTAR":0.0003681641,"MEAN_MOTION_DOT":0.00010969,"MEAN_MOTION_DDOT":0},{"OBJECT_NAME":"STARLINK-34934","OBJECT_ID":"2025-224R","EPOCH":"2026-03-09T06:41:56.567616","MEAN_MOTION":15.30192145,"ECCENTRICITY":0.00014124,"INCLINATION":53.1605,"RA_OF_ASC_NODE":13.0952,"ARG_OF_PERICENTER":84.2251,"MEAN_ANOMALY":275.8911,"EPHEMERIS_TYPE":0,"CLASSIFICATION_TYPE":"U","NORAD_CAT_ID":65897,"ELEMENT_SET_NO":999,"REV_AT_EPOCH":2476,"BSTAR":0.00081097584,"MEAN_MOTION_DOT":0.00023731,"MEAN_MOTION_DDOT":0}]
